Call Sign (String),Time Zone ID (String),Taken At (UTC) (ISO 8601),Taken At (Local) (ISO 8601),Is Regular Report (Boolean),Is Correction (Boolean),Has Been Corrected (Boolean),Has Precipitation Sensor (Boolean),Source (String),Sub-Source (String),Report Type (String),Trend (String),Airport Status (String),Automatic Type (String),Temperature (°F),Temperature Precision (Integer),Temperature 6-Hour Low (°F),Temperature 6-Hour High (°F),Temperature 24-Hour Low (°F),Temperature 24-Hour High (°F),Dew Point (°F),Dew Point Precision (Integer),Wind Speed (mph),Wind Direction (degrees),Gust Speed (mph),CAVOK (Boolean),Visibility (mi),Visibility Type (String),Precipitation 1h (in),Precipitation 3h (in),Precipitation 6h (in),Precipitation 24h (in),Snow Depth (in),Pressure Altimeter (in Hg),Pressure Station (in Hg),Pressure Sea Level (in Hg),Max Cloud Layer Code (String),Max Cloud Layer Height (ft),Cloud Layer Code 1 (String),Cloud Layer Label 1 (String),Cloud Layer Height 1 (ft),Cloud Layer Code 2 (String),Cloud Layer Label 2 (String),Cloud Layer Height 2 (ft),Cloud Layer Code 3 (String),Cloud Layer Label 3 (String),Cloud Layer Height 3 (ft),Cloud Layer Code 4 (String),Cloud Layer Label 4 (String),Cloud Layer Height 4 (ft),Cloud Layer Code 5 (String),Cloud Layer Label 5 (String),Cloud Layer Height 5 (ft),Cloud Layer Code 6 (String),Cloud Layer Label 6 (String),Cloud Layer Height 6 (ft),Weather Code 1 (String),Weather Label 1 (String),Weather Code 2 (String),Weather Label 2 (String),Weather Code 3 (String),Weather Label 3 (String),Weather Code 4 (String),Weather Label 4 (String),Weather Code 5 (String),Weather Label 5 (String),Weather Code 6 (String),Weather Label 6 (String),Raw (String)
KDEN,America/Denver,1987-10-10T05:50:00,1987-10-09T23:50:00,true,false,false,false,Metar,DvdArchive,,,,,33.08,1,,62.06,,,24.08,1,11.51,340.00,,false,20.00,Value,,,,,,30.41,,,SCT,5500.00,SCT,partly cloudy,5500.00,SCT,partly cloudy,12000.00,,,,,,,,,,,,,,,,,,,,,,,,,KDEN 100550Z 34010KT 20SM SCT055 SCT120 01/M04 A3041 RMK SLP290 T00061044 10167
KDEN,America/Denver,1987-10-10T07:50:00,1987-10-10T01:50:00,true,false,false,false,Metar,DvdArchive,,,,,28.94,1,,,,,23.00,1,8.06,350.00,,false,20.00,Value,,,,,,30.40,,,CLR,,CLR,clear,,,,,,,,,,,,,,,,,,,,,,,,,,,,,KDEN 100750Z 35007KT 20SM CLR M02/M05 A3040 RMK SLP284 T10171050
KDEN,America/Denver,1987-10-12T04:53:00,1987-10-11T22:53:00,true,false,false,false,Metar,DvdArchive,,,,,42.98,1,,,,,17.96,1,5.75,190.00,,false,20.00,Value,,,,,,30.32,,,CLR,,CLR,clear,,,,,,,,,,,,,,,,,,,,,,,,,,,,,KDEN 120453Z 19005KT 20SM CLR 06/M08 A3032 RMK SLP239 T00611078
KDEN,America/Denver,1987-10-12T06:50:00,1987-10-12T00:50:00,true,false,false,false,Metar,DvdArchive,,,,,41.00,1,,,,,19.04,1,5.75,160.00,,false,20.00,Value,,,,,,30.29,,,CLR,,CLR,clear,,,,,,,,,,,,,,,,,,,,,,,,,,,,,KDEN 120650Z 16005KT 20SM CLR 05/M07 A3029 RMK SLP223 T00501072
KDEN,America/Denver,1987-10-12T08:50:00,1987-10-12T02:50:00,true,false,false,false,Metar,DvdArchive,,,,,33.08,1,,,,,21.92,1,4.60,170.00,,false,20.00,Value,,,,,,30.28,,,CLR,,CLR,clear,,,,,,,,,,,,,,,,,,,,,,,,,,,,,KDEN 120850Z 17004KT 20SM CLR 01/M06 A3028 RMK SLP226 T00061056
KDEN,America/Denver,1987-10-14T03:55:00,1987-10-13T21:55:00,true,false,false,false,Metar,DvdArchive,,,,,44.06,1,,,,,41.00,1,11.51,360.00,,false,10.00,LowerBound,,,,,,30.16,,,OVC,2600.00,SCT,partly cloudy,1500.00,OVC,overcast,2600.00,,,,,,,,,,,,,-RA,light rain,,,,,,,,,,,KDEN 140355Z 36010KT 10SM -RA SCT015 OVC026 07/05 A3016 RMK SLP174 T00670050
KDEN,America/Denver,1987-10-14T05:51:00,1987-10-13T23:51:00,true,false,false,false,Metar,DvdArchive,,,,,41.00,1,,73.94,,,39.02,1,8.06,350.00,,false,6.00,Value,,,,,,30.18,,,OVC,1400.00,SCT,partly cloudy,800.00,OVC,overcast,1400.00,,,,,,,,,,,,,-RA,light rain,,,,,,,,,,,KDEN 140551Z 35007KT 6SM -RA SCT008 OVC014 05/04 A3018 RMK SLP175 T00500039 10233
KDEN,America/Denver,1987-10-14T07:50:00,1987-10-14T01:50:00,true,false,false,false,Metar,DvdArchive,,,,,37.94,1,,,,,35.96,1,6.90,70.00,,false,7.00,Value,,,,,,30.18,,,OVC,1400.00,SCT,partly cloudy,600.00,OVC,overcast,1400.00,,,,,,,,,,,,,-RA,light rain,,,,,,,,,,,KDEN 140750Z 07006KT 7SM -RA SCT006 OVC014 03/02 A3018 RMK SLP183 T00330022
KDEN,America/Denver,1987-10-16T04:52:00,1987-10-15T22:52:00,true,false,false,false,Metar,DvdArchive,,,,,51.08,1,,,,,35.06,1,16.11,30.00,34.52,false,20.00,Value,,,,,,30.07,,,BKN,7500.00,BKN,mostly cloudy,7500.00,,,,,,,,,,,,,,,,-SHRA,showers of light rain,,,,,,,,,,,KDEN 160452Z 03014G30KT 20SM -SHRA BKN075 11/02 A3007 RMK SLP152 T01060017
KDEN,America/Denver,1987-10-16T06:50:00,1987-10-16T00:50:00,true,false,false,false,Metar,DvdArchive,,,,,41.00,1,,,,,33.98,1,9.21,50.00,,false,15.00,Value,,,,,,30.17,,,OVC,4100.00,SCT,partly cloudy,3000.00,OVC,overcast,4100.00,,,,,,,,,,,,,,,,,,,,,,,,,KDEN 160650Z 05008KT 15SM SCT030 OVC041 05/01 A3017 RMK SLP185 T00500011
KDEN,America/Denver,1987-10-18T03:51:00,1987-10-17T21:51:00,true,false,false,false,Metar,DvdArchive,,,,,48.02,1,,,,,28.04,1,3.45,190.00,,false,20.00,Value,,,,,,30.12,,,SCT,25000.00,SCT,partly cloudy,25000.00,,,,,,,,,,,,,,,,,,,,,,,,,,,,KDEN 180351Z 19003KT 20SM SCT250 09/M02 A3012 RMK SLP171 T00891022
KDEN,America/Denver,1987-10-18T05:51:00,1987-10-17T23:51:00,true,false,false,false,Metar,DvdArchive,,,,,44.96,1,,71.06,,,26.96,1,4.60,190.00,,false,20.00,Value,,,,,,30.12,,,SCT,25000.00,SCT,partly cloudy,25000.00,,,,,,,,,,,,,,,,,,,,,,,,,,,,KDEN 180551Z 19004KT 20SM SCT250 07/M03 A3012 RMK SLP160 T00721028 10217
KDEN,America/Denver,1987-11-11T04:52:00,1987-11-10T21:52:00,true,false,false,false,Metar,DvdArchive,,,,,39.02,1,,,,,30.92,1,0.00,,,false,20.00,Value,,,,,,30.32,,,OVC,25000.00,SCT,partly cloudy,8000.00,BKN,mostly cloudy,12000.00,OVC,overcast,25000.00,,,,,,,,,,,,,,,,,,,,,,KDEN 110452Z 00000KT 20SM SCT080 BKN120 OVC250 04/M01 A3032 RMK SLP253 T00391006
KDEN,America/Denver,1987-11-11T06:52:00,1987-11-10T23:52:00,true,false,false,false,Metar,DvdArchive,,,,,37.04,1,,,,,30.92,1,4.60,140.00,,false,15.00,Value,,,,,,30.32,,,OVC,20000.00,BKN,mostly cloudy,14000.00,OVC,overcast,20000.00,,,,,,,,,,,,,,,,,,,,,,,,,KDEN 110652Z 14004KT 15SM BKN140 OVC200 03/M01 A3032 RMK SLP247 T00281006
KDEN,America/Denver,1987-11-11T08:50:00,1987-11-11T01:50:00,true,false,false,false,Metar,DvdArchive,,,,,37.94,1,,,,,28.94,1,4.60,110.00,,false,20.00,Value,,,,,,30.32,,,OVC,25000.00,OVC,overcast,25000.00,,,,,,,,,,,,,,,,,,,,,,,,,,,,KDEN 110850Z 11004KT 20SM OVC250 03/M02 A3032 RMK SLP241 T00331017
KDEN,America/Denver,1987-11-13T03:52:00,1987-11-12T20:52:00,true,false,false,false,Metar,DvdArchive,,,,,46.94,1,,,,,24.98,1,6.90,10.00,,false,20.00,Value,,,,,,30.02,,,OVC,25000.00,SCT,partly cloudy,13000.00,OVC,overcast,25000.00,,,,,,,,,,,,,,,,,,,,,,,,,KDEN 130352Z 01006KT 20SM SCT130 OVC250 08/M04 A3002 RMK SLP140 T00831039
KDEN,America/Denver,1987-11-13T05:50:00,1987-11-12T22:50:00,true,false,false,false,Metar,DvdArchive,,,,,42.98,1,,64.94,,,26.96,1,9.21,210.00,,false,20.00,Value,,,,,,30.01,,,BKN,25000.00,SCT,partly cloudy,15000.00,BKN,mostly cloudy,25000.00,,,,,,,,,,,,,,,,,,,,,,,,,KDEN 130550Z 21008KT 20SM SCT150 BKN250 06/M03 A3001 RMK SLP129 T00611028 10183
KDEN,America/Denver,1987-11-13T07:50:00,1987-11-13T00:50:00,true,false,false,false,Metar,DvdArchive,,,,,42.08,1,,,,,26.06,1,6.90,120.00,,false,20.00,Value,,,,,,30.00,,,OVC,16000.00,BKN,mostly cloudy,10000.00,OVC,overcast,16000.00,,,,,,,,,,,,,,,,,,,,,,,,,KDEN 130750Z 12006KT 20SM BKN100 OVC160 06/M03 A3000 RMK SLP122 T00561033
KDEN,America/Denver,1987-11-15T04:50:00,1987-11-14T21:50:00,true,false,false,false,Metar,DvdArchive,,,,,39.02,1,,,,,30.92,1,11.51,190.00,,false,5.00,Value,,,,,,29.63,,,OVC,1600.00,SCT,partly cloudy,500.00,OVC,overcast,1600.00,,,,,,,,,,,,,RABR,rain with mist,,,,,,,,,,,KDEN 150450Z 19010KT 5SM RABR SCT005 OVC016 04/M01 A2963 RMK SLP011 T00391006
KDEN,America/Denver,1987-11-15T06:50:00,1987-11-14T23:50:00,true,false,false,false,Metar,DvdArchive,,,,,35.96,1,,,,,30.02,1,5.75,190.00,,false,7.00,Value,,,,,,29.62,,,OVC,2300.00,SCT,partly cloudy,500.00,OVC,overcast,2300.00,,,,,,,,,,,,,-RA,light rain,,,,,,,,,,,KDEN 150650Z 19005KT 7SM -RA SCT005 OVC023 02/M01 A2962 RMK SLP006 T00221011
KDEN,America/Denver,1987-11-17T03:51:00,1987-11-16T20:51:00,true,false,false,false,Metar,DvdArchive,,,,,23.00,1,,,,,15.08,1,8.06,180.00,,false,15.00,Value,,,,,,29.83,,,BKN,10000.00,BKN,mostly cloudy,10000.00,BKN,mostly cloudy,25000.00,,,,,,,,,,,,,,,,,,,,,,,,,KDEN 170351Z 18007KT 15SM BKN100 BKN250 M05/M09 A2983 RMK SLP132 T10501094
KDEN,America/Denver,1987-11-17T05:50:00,1987-11-16T22:50:00,true,false,false,false,Metar,DvdArchive,,,,,23.00,1,,33.08,,,14.00,1,8.06,190.00,,false,20.00,Value,,,,,,29.81,,,BKN,11000.00,BKN,mostly cloudy,11000.00,,,,,,,,,,,,,,,,,,,,,,,,,,,,KDEN 170550Z 19007KT 20SM BKN110 M05/M10 A2981 RMK SLP120 T10501100 10006
KDEN,America/Denver,1987-11-19T04:51:00,1987-11-18T21:51:00,true,false,false,false,Metar,DvdArchive,,,,,28.94,1,,,,,17.06,1,10.36,190.00,,false,20.00,Value,,,,,,30.30,,,SCT,12000.00,SCT,partly cloudy,12000.00,,,,,,,,,,,,,,,,,,,,,,,,,,,,KDEN 190451Z 19009KT 20SM SCT120 M02/M08 A3030 RMK SLP282 T10171083
KDEN,America/Denver,1987-12-11T04:53:00,1987-12-10T21:53:00,true,false,false,false,Metar,DvdArchive,,,,,50.00,1,,,,,32.00,1,20.71,310.00,,false,20.00,Value,,,,,,29.79,,,SCT,12000.00,SCT,partly cloudy,12000.00,,,,,,,,,,,,,,,,,,,,,,,,,,,,KDEN 110453Z 31018KT 20SM SCT120 10/00 A2979 RMK SLP047 T01000000
KDEN,America/Denver,1987-12-11T08:53:00,1987-12-11T01:53:00,true,false,false,false,Metar,DvdArchive,,,,,35.06,1,,,,,32.00,1,12.66,110.00,,false,20.00,Value,,,,,,29.88,,,SCT,10000.00,SCT,partly cloudy,10000.00,,,,,,,,,,,,,,,,,,,,,,,,,,,,KDEN 110853Z 11011KT 20SM SCT100 02/00 A2988 RMK SLP092 T00170000
KDEN,America/Denver,1987-12-13T03:50:00,1987-12-12T20:50:00,true,false,false,false,Metar,DvdArchive,,,,,21.92,1,,,,,3.02,1,6.90,100.00,,false,20.00,Value,,,,,,29.99,,,OVC,25000.00,SCT,partly cloudy,6500.00,SCT,partly cloudy,9000.00,OVC,overcast,25000.00,,,,,,,,,,,,,,,,,,,,,,KDEN 130350Z 10006KT 20SM SCT065 SCT090 OVC250 M06/M16 A2999 RMK SLP182 T10561161
